STARLINK-37345          
1 69156U 26111J   26164.21995452  .00903161  00000+0  39139-2 0  9990
2 69156  53.1572 171.4921 0003143 279.3190  80.7478 15.81991100  3630
STARLINK-37353          
1 69157U 26111K   26164.28316132  .00316100  00000+0  15401-2 0  9997
2 69157  53.1573 171.1748 0001147  95.2430 264.8724 15.80971582  3641
STARLINK-37363          
1 69158U 26111L   26164.28095207 -.00396843  00000+0 -20812-2 0  9991
2 69158  53.1562 171.1585 0000250  69.1877 290.9172 15.81077478  3647
STARLINK-37343          
1 69159U 26111M   26164.25002315  .00011174  00000+0  20877-3 0  9998
2 69159  53.1595 172.1461 0000756 105.4188  28.4451 15.49294953  4916
STARLINK-37328          
1 69160U 26111N   26163.90162882  .00081162  00000+0  41056-3 0  9993
2 69160  53.1571 173.0599 0000811 108.8251 251.2860 15.80890549  3584
STARLINK-37311          
1 69161U 26111P   26164.29183088  .00223651  00000+0  12550-2 0  9995
2 69161  53.1574 171.2323 0001326  95.4591 264.6582 15.78116663  3644
STARLINK-36286          
1 69162U 26111Q   26163.65766931 -.00390918  00000+0 -23897-2 0  9998
2 69162  53.1571 174.3873 0000815 172.6788 187.4246 15.77702201  3540
STARLINK-37196          
1 69163U 26111R   26164.29369491  .00188703  00000+0  10650-2 0  9998
2 69163  53.1573 171.2435 0001454  97.9219 262.1967 15.78093110  3646
STARLINK-36288          
1 69164U 26111S   26164.10322710  .00127048  00000+0  78098-3 0  9998
2 69164  53.1579 172.1885 0007019   3.9194 356.1880 15.76340260  3618
STARLINK-37445          
1 69165U 26111T   26163.33993560 -.00030174  00000+0 -17173-3 0  9992
2 69165  53.1576 175.9593 0003125  39.8044 320.3206 15.77891462  3496
STARLINK-37491          
1 69166U 26111U   26164.22876232  .00308580  00000+0  17121-2 0  9997
2 69166  53.1572 171.5492 0001639  15.7925 344.3148 15.78126386  3636
STARLINK-37474          
1 69167U 26111V   26164.28953789  .00116943  00000+0  66790-3 0  9994
2 69167  53.1573 171.2157 0000994  85.9288 274.1847 15.78064101  3640
STARLINK-37469          
1 69168U 26111W   26164.25002315  .00009048  00000+0  17057-3 0  9991
2 69168  53.1584 172.3357 0000780 103.9604 295.7963 15.49306436  4910
STARLINK-37515          
1 69169U 26111X   26164.28793880 -.00691154  00000+0 -44323-2 0  9991
2 69169  53.1580 171.2060 0001631 125.2123 234.9051 15.77421449  3640
STARLINK-37437          
1 69170U 26111Y   26164.28362368  .00246780  00000+0  13804-2 0  9995
2 69170  53.1583 171.1765 0001517  97.1544 262.9650 15.78119735  3642
STARLINK-37392          
1 69171U 26111Z   26164.25002315 -.01737576  00000+0 -12420-1 0  9999
2 69171  53.1590 171.3217 0001367  92.1731  87.0547 15.76018347  4918
STARLINK-37472          
1 69172U 26111AA  26164.25002315 -.02582868  00000+0 -33389-1 0  9990
2 69172  53.1594 171.4467 0001317  74.3219  42.9086 15.62100903  4912
STARLINK-37461          
1 69173U 26111AB  26164.25002315  .00009676  00000+0  18189-3 0  9991
2 69173  53.1585 172.2432 0001257  98.6095 346.4606 15.49296519  4912
STARLINK-37333          
1 69174U 26111AC  26164.25002315 -.01102152  00000+0 -10233-1 0  9998
2 69174  53.1590 171.4343 0001309  71.2415  52.8086 15.69572007  4913
STARLINK-37385          
1 69175U 26111AD  26164.25002315  .00012442  00000+0  23149-3 0  9990
2 69175  53.1591 172.1560 0001071  81.5034  46.3819 15.49298264  4911
STARLINK-37414          
1 69176U 26111AE  26164.28176473  .08362499  00000+0  33253-1 0  9994
2 69176  53.1578 171.1619 0027222 203.6410 156.3364 15.81040579  3648
STRIX-7                 
1 69177U 26112A   26164.24681907  .00002704  00000+0  22293-3 0  9991
2 69177  44.9060 213.1451 0023545  24.6250 335.5740 15.01419786  3282
ELECTRON KICK STAGE R/B 
1 69178U 26112B   26164.23623312  .00003359  00000+0  26727-3 0  9990
2 69178  44.9058 213.0677 0024838  26.5173 333.6964 15.02159541  3288
SHENZHOU-23 (SZ-23)     
1 69180U 26113A   26164.20166782  .00021964  00000+0  26062-3 0  9998
2 69180  41.4695 346.2530 0007879  44.9431 315.2045 15.60638421292575
STARLINK-37380          
1 69182U 26114A   26164.22956938  .00164879  00000+0  93507-3 0  9994
2 69182  53.1585 222.2607 0001483  61.3034 298.8136 15.78058250  4146
STARLINK-37089          
1 69183U 26114B   26164.29196509  .00169165  00000+0  95942-3 0  9990
2 69183  53.1585 221.9381 0001462 110.7634 249.3544 15.78043564  4151
STARLINK-37428          
1 69184U 26114C   26164.22722857  .00230370  00000+0  12938-2 0  9995
2 69184  53.1588 222.2455 0001697  54.9012 305.2169 15.78078393  4142
STARLINK-37237          
1 69185U 26114D   26164.22447289  .00206649  00000+0  11658-2 0  9999
2 69185  53.1592 222.2263 0001339  85.0022 275.1153 15.78048653  4148
STARLINK-37365          
1 69186U 26114E   26164.22479058  .00115879  00000+0  66268-3 0  9991
2 69186  53.1592 222.2285 0001536  73.5650 286.5540 15.78038594  4140
STARLINK-37209          
1 69187U 26114F   26164.22401684  .00190037  00000+0  10744-2 0  9998
2 69187  53.1591 222.2234 0001763  45.1260 314.9904 15.78049702  4141
