OBJECT_NAME,OBJECT_ID,EPOCH,MEAN_MOTION,ECCENTRICITY,INCLINATION,RA_OF_ASC_NODE,ARG_OF_PERICENTER,MEAN_ANOMALY,EPHEMERIS_TYPE,CLASSIFICATION_TYPE,NORAD_CAT_ID,ELEMENT_SET_NO,REV_AT_EPOCH,BSTAR,MEAN_MOTION_DOT,MEAN_MOTION_DDOT
STARLINK-37345,2026-111J,2026-06-13T05:16:44.070528,15.81991100,.00031437,53.1572,171.4921,279.3190,80.7478,0,U,69156,999,363,.39138723E-2,.903161E-2,0
STARLINK-37353,2026-111K,2026-06-13T06:47:45.138048,15.80971582,.00011476,53.1573,171.1748,95.2430,264.8724,0,U,69157,999,364,.15401305E-2,.3161E-2,0
STARLINK-37363,2026-111L,2026-06-13T06:44:34.258848,15.81077478,.00002501,53.1562,171.1585,69.1877,290.9172,0,U,69158,999,364,-.20812007E-2,-.396843E-2,0
STARLINK-37343,2026-111M,2026-06-13T06:00:02.000160,15.49294953,.00007564,53.1595,172.1461,105.4188,28.4451,0,U,69159,999,491,.20877498E-3,.11174E-3,0
STARLINK-37328,2026-111N,2026-06-12T21:38:20.730048,15.80890549,.0000811,53.1571,173.0599,108.8251,251.2860,0,U,69160,999,358,.41055747E-3,.81162E-3,0
STARLINK-37311,2026-111P,2026-06-13T07:00:14.188032,15.78116663,.00013261,53.1574,171.2323,95.4591,264.6582,0,U,69161,999,364,.12550075E-2,.223651E-2,0
STARLINK-36286,2026-111Q,2026-06-12T15:47:02.628384,15.77702201,.00008158,53.1571,174.3873,172.6788,187.4246,0,U,69162,999,354,-.23896801E-2,-.390918E-2,0
STARLINK-37196,2026-111R,2026-06-13T07:02:55.240224,15.78093110,.00014542,53.1573,171.2435,97.9219,262.1967,0,U,69163,999,364,.10649743E-2,.188703E-2,0
STARLINK-36288,2026-111S,2026-06-13T02:28:38.821440,15.76340260,.00070196,53.1579,172.1885,3.9194,356.1880,0,U,69164,999,361,.78098116E-3,.127048E-2,0
STARLINK-37445,2026-111T,2026-06-12T08:09:30.435840,15.77891462,.00031257,53.1576,175.9593,39.8044,320.3206,0,U,69165,999,349,-.17172854E-3,-.30174E-3,0
STARLINK-37491,2026-111U,2026-06-13T05:29:25.064448,15.78126386,.00016391,53.1572,171.5492,15.7925,344.3148,0,U,69166,999,363,.17121464E-2,.30858E-2,0
STARLINK-37474,2026-111V,2026-06-13T06:56:56.073696,15.78064101,.00009943,53.1573,171.2157,85.9288,274.1847,0,U,69167,999,364,.66789692E-3,.116943E-2,0
STARLINK-37469,2026-111W,2026-06-13T06:00:02.000160,15.49306436,.00007808,53.1584,172.3357,103.9604,295.7963,0,U,69168,999,491,.17056835E-3,.9048E-4,0
STARLINK-37515,2026-111X,2026-06-13T06:54:37.912320,15.77421449,.00016317,53.1580,171.2060,125.2123,234.9051,0,U,69169,999,364,-.44322989E-2,-.691154E-2,0
STARLINK-37437,2026-111Y,2026-06-13T06:48:25.085952,15.78119735,.00015179,53.1583,171.1765,97.1544,262.9650,0,U,69170,999,364,.13804411E-2,.24678E-2,0
STARLINK-37392,2026-111Z,2026-06-13T06:00:02.000160,15.76018347,.00013672,53.1590,171.3217,92.1731,87.0547,0,U,69171,999,491,-.12419798E-1,-.1737576E-1,0
STARLINK-37472,2026-111AA,2026-06-13T06:00:02.000160,15.62100903,.00013176,53.1594,171.4467,74.3219,42.9086,0,U,69172,999,491,-.33388707E-1,-.2582868E-1,0
STARLINK-37461,2026-111AB,2026-06-13T06:00:02.000160,15.49296519,.00012578,53.1585,172.2432,98.6095,346.4606,0,U,69173,999,491,.18188738E-3,.9676E-4,0
STARLINK-37333,2026-111AC,2026-06-13T06:00:02.000160,15.69572007,.00013094,53.1590,171.4343,71.2415,52.8086,0,U,69174,999,491,-.10233489E-1,-.1102152E-1,0
STARLINK-37385,2026-111AD,2026-06-13T06:00:02.000160,15.49298264,.00010718,53.1591,172.1560,81.5034,46.3819,0,U,69175,999,491,.23148557E-3,.12442E-3,0
STARLINK-37414,2026-111AE,2026-06-13T06:45:44.472672,15.81040579,.00272221,53.1578,171.1619,203.6410,156.3364,0,U,69176,999,364,.33252538E-1,.8362499E-1,0
STRIX-7,2026-112A,2026-06-13T05:55:25.167648,15.01419786,.00235457,44.9060,213.1451,24.6250,335.5740,0,U,69177,999,328,.22293426E-3,.2704E-4,0
ELECTRON KICK STAGE R/B,2026-112B,2026-06-13T05:40:10.541568,15.02159541,.00248386,44.9058,213.0677,26.5173,333.6964,0,U,69178,999,328,.2672662E-3,.3359E-4,0
SHENZHOU-23 (SZ-23),2026-113A,2026-06-13T04:50:24.099648,15.60638421,.0007879,41.4695,346.2530,44.9431,315.2045,0,U,69180,999,29257,.26061765E-3,.21964E-3,0
STARLINK-37380,2026-114A,2026-06-13T05:30:34.794432,15.78058250,.00014835,53.1585,222.2607,61.3034,298.8136,0,U,69182,999,414,.93506665E-3,.164879E-2,0
STARLINK-37089,2026-114B,2026-06-13T07:00:25.783776,15.78043564,.00014625,53.1585,221.9381,110.7634,249.3544,0,U,69183,999,415,.95942274E-3,.169165E-2,0
STARLINK-37428,2026-114C,2026-06-13T05:27:12.548448,15.78078393,.00016978,53.1588,222.2455,54.9012,305.2169,0,U,69184,999,414,.12937798E-2,.23037E-2,0
STARLINK-37237,2026-114D,2026-06-13T05:23:14.457696,15.78048653,.00013392,53.1592,222.2263,85.0022,275.1153,0,U,69185,999,414,.11657522E-2,.206649E-2,0
STARLINK-37365,2026-114E,2026-06-13T05:23:41.906112,15.78038594,.00015362,53.1592,222.2285,73.5650,286.5540,0,U,69186,999,414,.66268364E-3,.115879E-2,0
STARLINK-37209,2026-114F,2026-06-13T05:22:35.054976,15.78049702,.00017638,53.1591,222.2234,45.1260,314.9904,0,U,69187,999,414,.10743844E-2,.190037E-2,0
